[79pdutoithartley(2023)]
absolute_magnitude             = 16
discoverer                     = D. du Toit
discovery                      = 1945-04-09
discovery_code                 = 1945c
iau_designation                = P/1945 G1
name                           = 79P/du Toit-Hartley (2023)
orbit_ArgOfPericenter          = 280.5192
orbit_AscendingNode            = 281.7726
orbit_Eccentricity             = 0.619195
orbit_Epoch                    = 2460476.5
orbit_Inclination              = 3.1489
orbit_PericenterDistance       = 1.120915
orbit_TimeAtPericenter         = 2460217.8452
orbit_good                     = 922
perihelion_code                = 1945 II
ref                            = MPC 94675
slope_parameter                = 4
type                           = comet

[89prussell(2024)]
absolute_magnitude             = 11.5
discoverer                     = K.S. Russell
discovery                      = 1980-09-28
discovery_code                 = 1980o
iau_designation                = P/1980 S1
name                           = 89P/Russell (2024)
orbit_ArgOfPericenter          = 250.401
orbit_AscendingNode            = 41.3449
orbit_Eccentricity             = 0.407699
orbit_Epoch                    = 2460476.5
orbit_Inclination              = 12.0721
orbit_PericenterDistance       = 2.221843
orbit_TimeAtPericenter         = 2460396.1032
orbit_good                     = 1000
perihelion_code                = 1980 III
ref                            = MPEC 2023-J29
slope_parameter                = 6
type                           = comet

[90377sedna]
absolute_magnitude             = 1.5
albedo                         = 0.32
discoverer                     = M.E. Brown, C.A. Trujillo, D.L. Rabinowitz
discovery                      = 2003-11-14
iau_designation                = 2003 VB12
minor_planet_number            = 90377
name                           = Sedna
orbit_ArgOfPericenter          = 310.84607
orbit_AscendingNode            = 144.34667
orbit_Eccentricity             = 0.8607738
orbit_Epoch                    = 2460400.5
orbit_Inclination              = 11.9287
orbit_MeanAnomaly              = 358.56637
orbit_MeanMotion               = 7.677e-05
orbit_SemiMajorAxis            = 548.2991403
radius                         = 1643
slope_parameter                = 0.15
tex_map                        = sedna.png
type                           = sednoid

[90482orcus]
absolute_magnitude             = 2.2
albedo                         = 0.25
discoverer                     = M.E. Brown, C.A. Trujillo, D.L. Rabinowitz
discovery                      = 2004-02-17
iau_designation                = 2004 DW
minor_planet_number            = 90482
name                           = Orcus
orbit_ArgOfPericenter          = 73.77276
orbit_AscendingNode            = 268.43116
orbit_Eccentricity             = 0.2262301
orbit_Epoch                    = 2460400.5
orbit_Inclination              = 20.55896
orbit_MeanAnomaly              = 185.62301
orbit_MeanMotion               = 0.00401729
orbit_SemiMajorAxis            = 39.1904603
radius                         = 1190
slope_parameter                = 0.15
type                           = plutino

[94prussell(2023)]
absolute_magnitude             = 9
discoverer                     = K.S. Russell
discovery                      = 1984-03-07
discovery_code                 = 1984d
iau_designation                = P/1984 E1
name                           = 94P/Russell (2023)
orbit_ArgOfPericenter          = 92.3949
orbit_AscendingNode            = 70.8519
orbit_Eccentricity             = 0.365719
orbit_Epoch                    = 2460476.5
orbit_Inclination              = 6.1879
orbit_PericenterDistance       = 2.226642
orbit_TimeAtPericenter         = 2460085.5406
orbit_good                     = 1000
perihelion_code                = 1984 I
ref                            = MPEC 2023_O39
slope_parameter                = 6
type                           = comet

[951gaspra]
absolute_magnitude             = 11.46
albedo                         = 0.246
color                          = 1., 0.904, 0.791
color_index_bv                 = 0.870
discoverer                     = G.N. Neujmin
discovery                      = 1916-07-30
iau_designation                = 1916 S45
minor_planet_number            = 951
model                          = 951gaspra_21_MLfix.obj
name                           = Gaspra
orbit_ArgOfPericenter          = 129.87931
orbit_AscendingNode            = 252.99275
orbit_Eccentricity             = 0.1733432
orbit_Epoch                    = 2460200.5
orbit_Inclination              = 4.10553
orbit_MeanAnomaly              = 173.10114
orbit_MeanMotion               = 0.29998278
orbit_SemiMajorAxis            = 2.2100656
radius                         = 18
rot_pole_de                    = 26.70
rot_pole_ra                    = 9.47
rot_pole_w0                    = 83.67
rot_pole_w1                    = 1226.9114850
slope_parameter                = 0.15
spec_b                         = S
spec_t                         = S
tex_map                        = gaspra.png
type                           = asteroid

[96pbmachholz(2023)]
absolute_magnitude             = 13
name                           = 96P-B/Machholz (2023)
orbit_ArgOfPericenter          = 93.9592
orbit_AscendingNode            = 14.702
orbit_Eccentricity             = 0.961658
orbit_Epoch                    = 2460476.5
orbit_Inclination              = 57.5033
orbit_PericenterDistance       = 0.116178
orbit_TimeAtPericenter         = 2459975.6102
orbit_good                     = 963
ref                            = MPC106348
slope_parameter                = 4.8
type                           = comet

[96pmachholz(2023)]
absolute_magnitude             = 13
discoverer                     = D.E. Machholz
discovery                      = 1986-05-12
discovery_code                 = 1986e
iau_designation                = P/1986 J2
name                           = 96P/Machholz (2023)
orbit_ArgOfPericenter          = 14.7398
orbit_AscendingNode            = 93.9569
orbit_Eccentricity             = 0.961642
orbit_Epoch                    = 2460476.5
orbit_Inclination              = 57.5578
orbit_PericenterDistance       = 0.116258
orbit_TimeAtPericenter         = 2459975.6274
orbit_good                     = 963
perihelion_code                = 1986 VIII
ref                            = MPEC 2023-N01
slope_parameter                = 4.8
type                           = comet

